NORAD_CAT_ID,OBJECT_NAME,OBJECT_TYPE,EPOCH,MEAN_MOTION,ECCENTRICITY,INCLINATION,RA_OF_ASC_NODE,ARG_OF_PERICENTER,MEAN_ANOMALY,BSTAR,MEAN_MOTION_DOT,MEAN_MOTION_DDOT,TLE_LINE0,TLE_LINE1,TLE_LINE2,SEMIMAJOR_AXIS,PERIOD,APOGEE,PERIGEE,DECAYED
53916.0,STARLINK-5051,PAYLOAD,2024-08-11 17:51:15,15.08834685,0.0001553,53.2175,354.8098,83.4562,276.6607,2.7499e-05,1.5e-06,0.0,0 STARLINK-5051,1 53916U 22119AG  24224.74392730  .00000150  00000-0  27499-4 0  9999,2 53916  53.2175 354.8098 0001553  83.4562 276.6607 15.08834685104892,6917.897,95.438,540.836,538.687,0.0
53916.0,STARLINK-5051,PAYLOAD,2024-08-12 01:48:09,15.08860473,0.0001208,53.2179,353.3221,87.4407,272.6724,0.00034514,5.212e-05,0.0,0 STARLINK-5051,1 53916U 22119AG  24225.07511308  .00005212  00000-0  34514-3 0  9999,2 53916  53.2179 353.3221 0001208  87.4407 272.6724 15.08860473104943,6917.818,95.436,540.518,538.847,0.0
53916.0,STARLINK-5051,PAYLOAD,2024-08-12 17:42:01,15.08843623,0.0001812,53.2175,350.346,87.1926,272.9273,4.3666e-05,4.07e-06,0.0,0 STARLINK-5051,1 53916U 22119AG  24225.73752054  .00000407  00000-0  43666-4 0  9997,2 53916  53.2175 350.3460 0001812  87.1926 272.9273 15.08843623105047,6917.869,95.437,540.988,538.481,0.0
53916.0,STARLINK-5051,PAYLOAD,2024-08-12 20:52:44,15.08896066,0.0003949,53.2175,349.751,217.4488,142.6229,0.00089349,0.00013983,0.0,0 STARLINK-5051,1 53916U 22119AG  24225.86996322  .00013983  00000-0  89349-3 0  9999,2 53916  53.2175 349.7510 0003949 217.4488 142.6229 15.08896066105491,6917.709,95.434,542.306,536.842,0.0
53916.0,STARLINK-5051,PAYLOAD,2024-08-13 01:38:56,15.08891896,0.0003014,53.216,348.8635,73.4272,286.7051,0.00099489,0.00015604,0.0,0 STARLINK-5051,1 53916U 22119AG  24226.06870899  .00015604  00000-0  99489-3 0  9990,2 53916  53.2160 348.8635 0003014  73.4272 286.7051 15.08891896105092,6917.722,95.434,541.672,537.502,0.0
53916.0,STARLINK-5051,PAYLOAD,2024-08-13 08:00:29,15.08864157,0.0005566,53.1977,347.6733,77.167,282.9943,0.00050391,7.747e-05,0.0,0 STARLINK-5051,1 53916U 22119AG  24226.33367660  .00007747  00000-0  50391-3 0  9995,2 53916  53.1977 347.6733 0005566  77.1670 282.9943 15.08864157105133,6917.807,95.436,543.522,535.821,0.0
53916.0,STARLINK-5051,PAYLOAD,2024-08-13 14:22:02,15.08821055,0.0002461,53.2089,346.4788,82.3631,277.764,-0.00034068,-5.704e-05,0.0,0 STARLINK-5051,1 53916U 22119AG  24226.59864525 -.00005704  00000-0 -34068-3 0  9991,2 53916  53.2089 346.4788 0002461  82.3631 277.7640 15.08821055105609,6917.938,95.439,541.506,538.101,0.0
53916.0,STARLINK-5051,PAYLOAD,2024-08-13 15:57:26,15.08819039,0.0001624,53.213,346.1854,76.0878,284.0295,-0.00052408,-8.614e-05,0.0,0 STARLINK-5051,1 53916U 22119AG  24226.66488493 -.00008614  00000-0 -52408-3 0  9996,2 53916  53.2130 346.1854 0001624  76.0878 284.0295 15.08819039105189,6917.944,95.439,540.933,538.686,0.0
53916.0,STARLINK-5051,PAYLOAD,2024-08-14 01:29:44,15.08831352,0.0001654,53.2157,344.3999,81.4853,278.6327,-0.00010677,-1.986e-05,0.0,0 STARLINK-5051,1 53916U 22119AG  24227.06232435 -.00001986  00000-0 -10677-3 0  9991,2 53916  53.2157 344.3999 0001654  81.4853 278.6327 15.08831352105248,6917.907,95.438,540.916,538.628,0.0
53916.0,STARLINK-5051,PAYLOAD,2024-08-14 14:12:50,15.08836242,0.0001762,53.2168,342.0203,83.5085,276.6107,0.00090438,0.00014133,0.0,0 STARLINK-5051,1 53916U 22119AG  24227.59225179  .00014133  00000-0  90438-3 0  9995,2 53916  53.2168 342.0203 0001762  83.5085 276.6107 15.08836242105756,6917.892,95.438,540.976,538.538,0.0
53916.0,STARLINK-5051,PAYLOAD,2024-08-15 14:03:37,15.08844345,0.0001818,53.2184,337.5609,83.2509,276.869,0.00028784,4.296e-05,0.0,0 STARLINK-5051,1 53916U 22119AG  24228.58585124  .00004296  00000-0  28784-3 0  9998,2 53916  53.2184 337.5609 0001818  83.2509 276.8690 15.08844345105902,6917.867,95.437,540.99,538.474,0.0
53916.0,STARLINK-5051,PAYLOAD,2024-08-15 15:39:00,15.08839816,0.0001626,53.2182,337.2624,79.8988,280.2188,0.00016061,2.269e-05,0.0,0 STARLINK-5051,1 53916U 22119AG  24228.65209196  .00002269  00000-0  16061-3 0  9991,2 53916  53.2182 337.2624 0001626  79.8988 280.2188 15.08839816105484,6917.881,95.438,540.871,538.621,0.0
53916.0,STARLINK-5051,PAYLOAD,2024-08-17 16:55:58,15.08830877,0.000145,53.2202,328.0455,78.2985,281.817,-3.4497e-05,-8.37e-06,0.0,0 STARLINK-5051,1 53916U 22119AG  24230.70554098 -.00000837  00000-0 -34497-4 0  9999,2 53916  53.2202 328.0455 0001450  78.2985 281.8170 15.08830877105792,6917.908,95.438,540.776,538.77,0.0
53916.0,STARLINK-5051,PAYLOAD,2024-08-18 05:39:03,15.08839895,0.0001291,53.2196,325.6688,73.5928,286.5206,7.9787e-05,9.82e-06,0.0,0 STARLINK-5051,1 53916U 22119AG  24231.23545725  .00000982  00000-0  79787-4 0  9995,2 53916  53.2196 325.6688 0001291  73.5928 286.5206 15.08839895106302,6917.881,95.438,540.639,538.853,0.0
53916.0,STARLINK-5051,PAYLOAD,2024-08-18 12:00:35,15.08819485,0.0002055,53.2175,324.4783,128.4085,231.7092,0.00070842,0.00010998,0.0,0 STARLINK-5051,1 53916U 22119AG  24231.50041265  .00010998  00000-0  70842-3 0  9995,2 53916  53.2175 324.4783 0002055 128.4085 231.7092 15.08819485105919,6917.943,95.439,541.23,538.386,0.0
53916.0,STARLINK-5051,PAYLOAD,2024-08-18 13:35:58,15.08841914,0.000153,53.2191,324.1812,107.0452,253.0708,0.00022552,3.303e-05,0.0,0 STARLINK-5051,1 53916U 22119AG  24231.56665093  .00003303  00000-0  22552-3 0  9999,2 53916  53.2191 324.1812 0001530 107.0452 253.0708 15.08841914105929,6917.875,95.437,540.798,538.681,0.0
53916.0,STARLINK-5051,PAYLOAD,2024-08-19 10:16:00,15.08834121,0.000157,53.2184,320.3158,116.6089,243.5065,0.00011495,1.542e-05,0.0,0 STARLINK-5051,1 53916U 22119AG  24232.42778116  .00001542  00000-0  11495-3 0  9993,2 53916  53.2184 320.3158 0001570 116.6089 243.5065 15.08834121106055,6917.898,95.438,540.849,538.677,0.0
53916.0,STARLINK-5051,PAYLOAD,2024-08-20 11:42:09,15.08851274,0.0001447,53.2178,315.5545,89.4485,270.6673,4.032e-05,3.54e-06,0.0,0 STARLINK-5051,1 53916U 22119AG  24233.48761366  .00000354  00000-0  40320-4 0  9999,2 53916  53.2178 315.5545 0001447  89.4485 270.6673 15.08851274106216,6917.846,95.437,540.712,538.71,0.0
53916.0,STARLINK-5051,PAYLOAD,2024-08-20 13:17:32,15.08853924,0.0001487,53.2186,315.2587,92.9637,267.1525,9.7696e-05,1.268e-05,0.0,0 STARLINK-5051,1 53916U 22119AG  24233.55385075  .00001268  00000-0  97696-4 0  9999,2 53916  53.2186 315.2587 0001487  92.9637 267.1525 15.08853924106659,6917.838,95.437,540.732,538.674,0.0
53916.0,STARLINK-5051,PAYLOAD,2024-08-21 11:32:56,15.08842583,0.0001599,53.2184,311.0867,143.5222,216.5879,8.9448e-05,1.136e-05,0.0,0 STARLINK-5051,1 53916U 22119AG  24234.48121234  .00001136  00000-0  89448-4 0  9997,2 53916  53.2184 311.0867 0001599 143.5222 216.5879 15.08842583106366,6917.872,95.437,540.844,538.631,0.0
53916.0,STARLINK-5051,PAYLOAD,2024-08-21 16:19:06,15.08834063,0.0001224,53.2179,310.1978,121.0283,239.0829,-2.0573e-06,-3.21e-06,0.0,0 STARLINK-5051,1 53916U 22119AG  24234.67994131 -.00000321  00000-0 -20573-5 0  9994,2 53916  53.2179 310.1978 0001224 121.0283 239.0829 15.08834063106398,6917.899,95.438,540.61,538.917,0.0
